COSMOS 1933             
1 18958U 88020A   26024.22306535  .00007958  00000+0  39481-3 0  9995
2 18958  82.5140 294.8963 0004739  19.3555 340.7858 15.17564724 43481
SL-3 R/B                
1 19046U 88032B   26024.21918187  .00009386  00000+0  44366-3 0  9993
2 19046  97.5135   7.6716 0027462  32.6897 327.6030 15.19281205 45357
SL-16 R/B               
1 19120U 88039B   26024.09549299 -.00000015  00000+0  15795-4 0  9999
2 19120  71.0144 162.8414 0020164  44.0708 316.2020 14.19608777952059
COSMOS 1953             
1 19210U 88050A   26024.22715960  .00013443  00000+0  49657-3 0  9998
2 19210  82.5075 202.9280 0010414 282.6143  77.3931 15.27567348 30990
SL-8 R/B                
1 19257U 88053B   26023.53345652  .00000417  00000+0  14352-3 0  9993
2 19257  74.0458 195.6913 0019690  24.8383  31.1884 14.38886072970100
COSMOS 1975             
1 19573U 88093A   26024.11834235  .00014399  00000+0  53781-3 0  9996
2 19573  82.5217 162.3824 0010918 332.4105  27.6553 15.27199194 12600
SL-14 R/B               
1 19574U 88093B   26024.20856985  .00000842  00000+0  94182-4 0  9992
2 19574  82.5297  83.8113 0020670 181.1160 236.8687 14.85605268994432
SL-16 R/B               
1 19650U 88102B   26023.91038052 -.00000001  00000+0  23472-4 0  9994
2 19650  70.9977 245.7143 0011920  76.7646 283.4806 14.16148250920551
INTERCOSMOS 24          
1 20261U 89080A   26024.24349742  .00000791  00000+0  22626-3 0  9992
2 20261  82.6079 133.3240 1188805  35.9807 331.5678 12.59498974661200
SL-14 R/B               
1 20262U 89080C   26024.22721768  .00000404  00000+0  12280-3 0  9999
2 20262  82.5921 201.7346 1229540 286.4525  60.5135 12.50444897654592
DELTA 1 R/B             
1 20323U 89089B   26024.19957684  .00000777  00000+0  20145-3 0  9992
2 20323  97.0733 238.7047 0067554 263.2359  96.1148 14.50619125889287
ARIANE 40 R/B           
1 20443U 90005H   26023.92183332  .00000713  00000+0  24050-3 0  9995
2 20443  98.3178  85.8956 0009635 346.1706  13.9217 14.39837016886368
