CCSDS_OMM_VERS = 2.0
CREATION_DATE  = 
ORIGINATOR     = 

OBJECT_NAME    = COSMOS 1933
OBJECT_ID      = 1988-020A
CENTER_NAME    = EARTH
REF_FRAME      = TEME
TIME_SYSTEM    = UTC
MEAN_ELEMENT_THEORY = SGP/SGP4

EPOCH          = 2026-01-24T05:21:12.846240
MEAN_MOTION    = 15.17564724
ECCENTRICITY   = .00047391
INCLINATION    = 82.5140
RA_OF_ASC_NODE = 294.8963
ARG_OF_PERICENTER = 19.3555
MEAN_ANOMALY   = 340.7858

EPHEMERIS_TYPE = 0
CLASSIFICATION_TYPE = U
NORAD_CAT_ID   = 18958
ELEMENT_SET_NO = 999
REV_AT_EPOCH   = 4348
BSTAR          = .39481078E-3
MEAN_MOTION_DOT = .7958E-4
MEAN_MOTION_DDOT = 0

CCSDS_OMM_VERS = 2.0
CREATION_DATE  = 
ORIGINATOR     = 

OBJECT_NAME    = SL-3 R/B
OBJECT_ID      = 1988-032B
CENTER_NAME    = EARTH
REF_FRAME      = TEME
TIME_SYSTEM    = UTC
MEAN_ELEMENT_THEORY = SGP/SGP4

EPOCH          = 2026-01-24T05:15:37.313568
MEAN_MOTION    = 15.19281205
ECCENTRICITY   = .00274625
INCLINATION    = 97.5135
RA_OF_ASC_NODE = 7.6716
ARG_OF_PERICENTER = 32.6897
MEAN_ANOMALY   = 327.6030

EPHEMERIS_TYPE = 0
CLASSIFICATION_TYPE = U
NORAD_CAT_ID   = 19046
ELEMENT_SET_NO = 999
REV_AT_EPOCH   = 4535
BSTAR          = .4436556E-3
MEAN_MOTION_DOT = .9386E-4
MEAN_MOTION_DDOT = 0

CCSDS_OMM_VERS = 2.0
CREATION_DATE  = 
ORIGINATOR     = 

OBJECT_NAME    = SL-16 R/B
OBJECT_ID      = 1988-039B
CENTER_NAME    = EARTH
REF_FRAME      = TEME
TIME_SYSTEM    = UTC
MEAN_ELEMENT_THEORY = SGP/SGP4

EPOCH          = 2026-01-24T02:17:30.594336
MEAN_MOTION    = 14.19608777
ECCENTRICITY   = .00201648
INCLINATION    = 71.0144
RA_OF_ASC_NODE = 162.8414
ARG_OF_PERICENTER = 44.0708
MEAN_ANOMALY   = 316.2020

EPHEMERIS_TYPE = 0
CLASSIFICATION_TYPE = U
NORAD_CAT_ID   = 19120
ELEMENT_SET_NO = 999
REV_AT_EPOCH   = 95205
BSTAR          = .15795301E-4
MEAN_MOTION_DOT = -.15E-6
MEAN_MOTION_DDOT = 0

CCSDS_OMM_VERS = 2.0
CREATION_DATE  = 
ORIGINATOR     = 

OBJECT_NAME    = COSMOS 1953
OBJECT_ID      = 1988-050A
CENTER_NAME    = EARTH
REF_FRAME      = TEME
TIME_SYSTEM    = UTC
MEAN_ELEMENT_THEORY = SGP/SGP4

EPOCH          = 2026-01-24T05:27:06.589440
MEAN_MOTION    = 15.27567348
ECCENTRICITY   = .00104143
INCLINATION    = 82.5075
RA_OF_ASC_NODE = 202.9280
ARG_OF_PERICENTER = 282.6143
MEAN_ANOMALY   = 77.3931

EPHEMERIS_TYPE = 0
CLASSIFICATION_TYPE = U
NORAD_CAT_ID   = 19210
ELEMENT_SET_NO = 999
REV_AT_EPOCH   = 3099
BSTAR          = .49657143E-3
MEAN_MOTION_DOT = .13443E-3
MEAN_MOTION_DDOT = 0

CCSDS_OMM_VERS = 2.0
CREATION_DATE  = 
ORIGINATOR     = 

OBJECT_NAME    = SL-8 R/B
OBJECT_ID      = 1988-053B
CENTER_NAME    = EARTH
REF_FRAME      = TEME
TIME_SYSTEM    = UTC
MEAN_ELEMENT_THEORY = SGP/SGP4

EPOCH          = 2026-01-23T12:48:10.643328
MEAN_MOTION    = 14.38886072
ECCENTRICITY   = .00196903
INCLINATION    = 74.0458
RA_OF_ASC_NODE = 195.6913
ARG_OF_PERICENTER = 24.8383
MEAN_ANOMALY   = 31.1884

EPHEMERIS_TYPE = 0
CLASSIFICATION_TYPE = U
NORAD_CAT_ID   = 19257
ELEMENT_SET_NO = 999
REV_AT_EPOCH   = 97010
BSTAR          = .14352306E-3
MEAN_MOTION_DOT = .417E-5
MEAN_MOTION_DDOT = 0

CCSDS_OMM_VERS = 2.0
CREATION_DATE  = 
ORIGINATOR     = 

OBJECT_NAME    = COSMOS 1975
OBJECT_ID      = 1988-093A
CENTER_NAME    = EARTH
REF_FRAME      = TEME
TIME_SYSTEM    = UTC
MEAN_ELEMENT_THEORY = SGP/SGP4

EPOCH          = 2026-01-24T02:50:24.779040
MEAN_MOTION    = 15.27199194
ECCENTRICITY   = .00109181
INCLINATION    = 82.5217
RA_OF_ASC_NODE = 162.3824
ARG_OF_PERICENTER = 332.4105
MEAN_ANOMALY   = 27.6553

EPHEMERIS_TYPE = 0
CLASSIFICATION_TYPE = U
NORAD_CAT_ID   = 19573
ELEMENT_SET_NO = 999
REV_AT_EPOCH   = 1260
BSTAR          = .5378129E-3
MEAN_MOTION_DOT = .14399E-3
MEAN_MOTION_DDOT = 0

CCSDS_OMM_VERS = 2.0
CREATION_DATE  = 
ORIGINATOR     = 

OBJECT_NAME    = SL-14 R/B
OBJECT_ID      = 1988-093B
CENTER_NAME    = EARTH
REF_FRAME      = TEME
TIME_SYSTEM    = UTC
MEAN_ELEMENT_THEORY = SGP/SGP4

EPOCH          = 2026-01-24T05:00:20.435040
MEAN_MOTION    = 14.85605268
ECCENTRICITY   = .00206703
INCLINATION    = 82.5297
RA_OF_ASC_NODE = 83.8113
ARG_OF_PERICENTER = 181.1160
MEAN_ANOMALY   = 236.8687

EPHEMERIS_TYPE = 0
CLASSIFICATION_TYPE = U
NORAD_CAT_ID   = 19574
ELEMENT_SET_NO = 999
REV_AT_EPOCH   = 99443
BSTAR          = .94181986E-4
MEAN_MOTION_DOT = .842E-5
MEAN_MOTION_DDOT = 0

CCSDS_OMM_VERS = 2.0
CREATION_DATE  = 
ORIGINATOR     = 

OBJECT_NAME    = SL-16 R/B
OBJECT_ID      = 1988-102B
CENTER_NAME    = EARTH
REF_FRAME      = TEME
TIME_SYSTEM    = UTC
MEAN_ELEMENT_THEORY = SGP/SGP4

EPOCH          = 2026-01-23T21:50:56.876928
MEAN_MOTION    = 14.16148250
ECCENTRICITY   = .001192
INCLINATION    = 70.9977
RA_OF_ASC_NODE = 245.7143
ARG_OF_PERICENTER = 76.7646
MEAN_ANOMALY   = 283.4806

EPHEMERIS_TYPE = 0
CLASSIFICATION_TYPE = U
NORAD_CAT_ID   = 19650
ELEMENT_SET_NO = 999
REV_AT_EPOCH   = 92055
BSTAR          = .23472E-4
MEAN_MOTION_DOT = -.1E-7
MEAN_MOTION_DDOT = 0

CCSDS_OMM_VERS = 2.0
CREATION_DATE  = 
ORIGINATOR     = 

OBJECT_NAME    = INTERCOSMOS 24
OBJECT_ID      = 1989-080A
CENTER_NAME    = EARTH
REF_FRAME      = TEME
TIME_SYSTEM    = UTC
MEAN_ELEMENT_THEORY = SGP/SGP4

EPOCH          = 2026-01-24T05:50:38.177088
MEAN_MOTION    = 12.59498974
ECCENTRICITY   = .11888053
INCLINATION    = 82.6079
RA_OF_ASC_NODE = 133.3240
ARG_OF_PERICENTER = 35.9807
MEAN_ANOMALY   = 331.5678

EPHEMERIS_TYPE = 0
CLASSIFICATION_TYPE = U
NORAD_CAT_ID   = 20261
ELEMENT_SET_NO = 999
REV_AT_EPOCH   = 66120
BSTAR          = .22626489E-3
MEAN_MOTION_DOT = .791E-5
MEAN_MOTION_DDOT = 0

CCSDS_OMM_VERS = 2.0
CREATION_DATE  = 
ORIGINATOR     = 

OBJECT_NAME    = SL-14 R/B
OBJECT_ID      = 1989-080C
CENTER_NAME    = EARTH
REF_FRAME      = TEME
TIME_SYSTEM    = UTC
MEAN_ELEMENT_THEORY = SGP/SGP4

EPOCH          = 2026-01-24T05:27:11.607552
MEAN_MOTION    = 12.50444897
ECCENTRICITY   = .12295408
INCLINATION    = 82.5921
RA_OF_ASC_NODE = 201.7346
ARG_OF_PERICENTER = 286.4525
MEAN_ANOMALY   = 60.5135

EPHEMERIS_TYPE = 0
CLASSIFICATION_TYPE = U
NORAD_CAT_ID   = 20262
ELEMENT_SET_NO = 999
REV_AT_EPOCH   = 65459
BSTAR          = .12279643E-3
MEAN_MOTION_DOT = .404E-5
MEAN_MOTION_DDOT = 0

CCSDS_OMM_VERS = 2.0
CREATION_DATE  = 
ORIGINATOR     = 

OBJECT_NAME    = DELTA 1 R/B
OBJECT_ID      = 1989-089B
CENTER_NAME    = EARTH
REF_FRAME      = TEME
TIME_SYSTEM    = UTC
MEAN_ELEMENT_THEORY = SGP/SGP4

EPOCH          = 2026-01-24T04:47:23.438976
MEAN_MOTION    = 14.50619125
ECCENTRICITY   = .00675546
INCLINATION    = 97.0733
RA_OF_ASC_NODE = 238.7047
ARG_OF_PERICENTER = 263.2359
MEAN_ANOMALY   = 96.1148

EPHEMERIS_TYPE = 0
CLASSIFICATION_TYPE = U
NORAD_CAT_ID   = 20323
ELEMENT_SET_NO = 999
REV_AT_EPOCH   = 88928
BSTAR          = .20144634E-3
MEAN_MOTION_DOT = .777E-5
MEAN_MOTION_DDOT = 0

CCSDS_OMM_VERS = 2.0
CREATION_DATE  = 
ORIGINATOR     = 

OBJECT_NAME    = ARIANE 40 R/B
OBJECT_ID      = 1990-005H
CENTER_NAME    = EARTH
REF_FRAME      = TEME
TIME_SYSTEM    = UTC
MEAN_ELEMENT_THEORY = SGP/SGP4

EPOCH          = 2026-01-23T22:07:26.398848
MEAN_MOTION    = 14.39837016
ECCENTRICITY   = .0009635
INCLINATION    = 98.3178
RA_OF_ASC_NODE = 85.8956
ARG_OF_PERICENTER = 346.1706
MEAN_ANOMALY   = 13.9217

EPHEMERIS_TYPE = 0
CLASSIFICATION_TYPE = U
NORAD_CAT_ID   = 20443
ELEMENT_SET_NO = 999
REV_AT_EPOCH   = 88636
BSTAR          = .2405E-3
MEAN_MOTION_DOT = .713E-5
MEAN_MOTION_DDOT = 0

